IRIDIUM 138             
1 43071U 17083B   26176.89799986  .00000055  00000+0  12575-4 0  9994
2 43071  86.3985 318.0698 0002231  87.2056 272.9395 14.34217839445380
IRIDIUM 116             
1 43072U 17083C   26176.93605506  .00000141  00000+0  43431-4 0  9995
2 43072  86.3971 318.3429 0002143 101.7208 258.4228 14.34217970445429
IRIDIUM 130             
1 43073U 17083D   26176.90434045  .00000042  00000+0  81001-5 0  9997
2 43073  86.3978 318.6322 0001994  96.4120 263.7302 14.34216760445369
IRIDIUM 151             
1 43074U 17083E   26176.94874047  .00000050  00000+0  10946-4 0  9990
2 43074  86.3972 318.3955 0002189  93.9266 266.2180 14.34217788445399
IRIDIUM 134             
1 43075U 17083F   26176.91702699  .00000128  00000+0  38796-4 0  9990
2 43075  86.3974 318.4169 0002133  93.9759 266.1681 14.34218243445354
IRIDIUM 137             
1 43076U 17083G   26177.13901881 -.00000017  00000+0 -13138-4 0  9992
2 43076  86.3974 318.4173 0002376 102.4622 257.6840 14.34217363445459
IRIDIUM 141             
1 43077U 17083H   26176.92337000  .00000039  00000+0  68540-5 0  9995
2 43077  86.3970 318.3373 0002204  91.3549 268.7899 14.34217791445420
IRIDIUM 153             
1 43078U 17083J   26176.80578044 -.00000015  00000+0 -12333-4 0  9992
2 43078  86.3964 286.8675 0002089  90.8348 269.3087 14.34217320446515
IRIDIUM 131             
1 43079U 17083K   26176.91068492  .00000009  00000+0 -37165-5 0  9999
2 43079  86.3973 318.5294 0002141  92.4751 267.6690 14.34217302445353
IRIDIUM 144             
1 43249U 18030A   26176.74234877  .00000191  00000+0  61192-4 0  9991
2 43249  86.3964 286.8228 0002222  98.4361 261.7087 14.34220022431363
IRIDIUM 149             
1 43250U 18030B   26176.81846594  .00000001  00000+0 -68553-5 0  9996
2 43250  86.3962 286.7581 0002202  94.1022 266.0425 14.34217423431397
IRIDIUM 157             
1 43251U 18030C   26176.83749315 -.00000010  00000+0 -10528-4 0  9991
2 43251  86.3964 286.8034 0002155  94.9410 265.2032 14.34217528431379
IRIDIUM 140             
1 43252U 18030D   26176.85651978  .00000179  00000+0  57006-4 0  9997
2 43252  86.3964 286.8079 0002144  95.2340 264.9100 14.34217361431437
IRIDIUM 145             
1 43253U 18030E   26176.91360381  .00000078  00000+0  20735-4 0  9997
2 43253  86.3960 286.7562 0002208 103.0324 257.1118 14.34218060431374
IRIDIUM 146             
1 43254U 18030F   26176.82480815  .00000074  00000+0  19493-4 0  9998
2 43254  86.3963 286.8055 0002244  98.0196 262.1254 14.34217702431375
IRIDIUM 148             
1 43255U 18030G   26176.72332672  .00000012  00000+0 -26263-5 0  9992
2 43255  86.3965 286.8914 0002210  96.1958 263.9489 14.34217672431397
IRIDIUM 142             
1 43256U 18030H   26176.83115071  .00000017  00000+0 -11382-5 0  9998
2 43256  86.3960 286.7349 0002264  99.6563 260.4888 14.34217739431370
IRIDIUM 150             
1 43257U 18030J   26176.79943715  .00000199  00000+0  64171-4 0  9991
2 43257  86.3965 286.8647 0002154  95.6391 264.5051 14.34218232431399
IRIDIUM 143             
1 43258U 18030K   26176.85017833  .00000249  00000+0  81834-4 0  9993
2 43258  86.3967 286.9363 0002201  98.0693 262.0752 14.34218012431334
IRIDIUM 161             
1 43478U 18047C   26177.18199873  .00000297  00000+0  82215-4 0  9994
2 43478  86.4480  84.7105 0002503  81.3517 278.7968 14.43283182426430
IRIDIUM 152             
1 43479U 18047D   26177.17173846  .00000235  00000+0  76867-4 0  9994
2 43479  86.3956  84.5760 0002317  82.7056 277.4403 14.34218050423775
IRIDIUM 147             
1 43480U 18047E   26177.17808164 -.00000004  00000+0 -84587-5 0  9999
2 43480  86.3954  84.5786 0002024  87.1342 273.0086 14.34217485423775
IRIDIUM 110             
1 43481U 18047F   26177.18442494 -.00000031  00000+0 -18115-4 0  9994
2 43481  86.3956  84.6680 0002357  78.4304 281.7156 14.34217222423764
IRIDIUM 162             
1 43482U 18047G   26177.17570161  .00000315  00000+0  87731-4 0  9990
2 43482  86.4480  84.6041 0002275  83.9369 276.2091 14.43278753426429
IRIDIUM 160             
1 43569U 18061A   26176.71164925  .00000032  00000+0  44927-5 0  9995
2 43569  86.3956  53.2329 0002264  85.7581 274.3873 14.34217757414596
IRIDIUM 166             
1 43570U 18061B   26177.15563016 -.00000008  00000+0 -10040-4 0  9993
2 43570  86.3949  52.9973 0002027  88.1146 272.0282 14.34217454414685
IRIDIUM 158             
1 43571U 18061C   26177.12391705  .00000142  00000+0  43695-4 0  9994
2 43571  86.3952  53.0207 0002174  83.8382 276.3061 14.34217777414645
IRIDIUM 165             
1 43572U 18061D   26177.14928730  .00000111  00000+0  32555-4 0  9990
2 43572  86.3955  53.0566 0002138  89.6697 270.4744 14.34217566414672
IRIDIUM 155             
1 43573U 18061E   26177.18100047  .00000061  00000+0  14860-4 0  9991
2 43573  86.3952  52.9120 0002031  84.3619 275.7809 14.34217929414642
IRIDIUM 154             
1 43574U 18061F   26177.16197269  .00000106  00000+0  30683-4 0  9993
2 43574  86.3955  53.0541 0002177  89.4428 270.7017 14.34218039414694
IRIDIUM 163             
1 43575U 18061G   26177.14294546  .00000106  00000+0  30752-4 0  9995
2 43575  86.3953  52.9770 0002205  83.7062 276.4385 14.34217799414668
